GLOBALSTAR M067         
1 32263U 07048A   25167.39085226 -.00000059  00000+0  28569-3 0  9998
2 32263  51.9745  38.2621 0001323  19.2309 151.5340 12.40673493809380
GLOBALSTAR M070         
1 32264U 07048B   25167.60509958 -.00000092  00000+0  64510-4 0  9990
2 32264  51.9732 130.2753 0000391  58.8951 112.3042 12.62319412813596
GLOBALSTAR M066         
1 32265U 07048C   25167.11138385 -.00000099  00000+0 -36991-4 0  9999
2 32265  51.9627  28.6809 0002927 290.1311 241.6330 12.30185502815167
GLOBALSTAR M068         
1 32266U 07048D   25167.43338657 -.00000081  00000+0  12435-3 0  9995
2 32266  51.9897 304.5552 0001747 124.7861 272.5234 12.62824889817463
GLOBALSTAR M079         
1 37188U 10054A   25167.40799214 -.00000105  00000+0 -85186-5 0  9994
2 37188  52.0015 142.1562 0000353 331.7925 194.2342 12.62265008676358
GLOBALSTAR M074         
1 37189U 10054B   25167.35129449 -.00000113  00000+0 -48984-4 0  9999
2 37189  51.9991 141.6528 0000404  17.4353 129.6049 12.62256902676951
GLOBALSTAR M076         
1 37190U 10054C   25167.29664788 -.00000112  00000+0 -45220-4 0  9993
2 37190  52.0014 141.9894 0000475 358.7805 140.4644 12.62263325676668
GLOBALSTAR M077         
1 37191U 10054D   25167.52803861 -.00000083  00000+0  11708-3 0  9996
2 37191  52.0069  98.1412 0000552  41.7048 129.4753 12.62268446677064
